NORAD_CAT_ID,OBJECT_NAME,OBJECT_TYPE,EPOCH,MEAN_MOTION,ECCENTRICITY,INCLINATION,RA_OF_ASC_NODE,ARG_OF_PERICENTER,MEAN_ANOMALY,BSTAR,MEAN_MOTION_DOT,MEAN_MOTION_DDOT,TLE_LINE0,TLE_LINE1,TLE_LINE2,SEMIMAJOR_AXIS,PERIOD,APOGEE,PERIGEE,DECAYED
51866.0,STARLINK-3553,PAYLOAD,2022-06-06 22:00:00,15.08845219,0.0001924,53.215,47.2529,54.6483,154.6463,-0.0010405999999999,-0.00016814,0.0,0 STARLINK-3553,1 51866U 22022Q   22157.91667824 -.00016814  00000-0 -10406-2 0  9999,2 51866  53.2150  47.2529 0001924  54.6483 154.6463 15.08845219 16019,6917.864000000001,95.437,541.06,538.398,0.0
51866.0,STARLINK-3553,PAYLOAD,2022-06-07 14:00:01,15.08841349,0.0001819,53.2149,44.2583,57.8076,174.6874,0.00060122,9.294e-05,0.0,0 STARLINK-3553,1 51866U 22022Q   22158.58334491  .00009294  00000-0  60122-3 0  9997,2 51866  53.2149  44.2583 0001819  57.8076 174.6874 15.08841349 16119,6917.876,95.437,541.0,538.4830000000002,0.0
51866.0,STARLINK-3553,PAYLOAD,2022-06-07 22:00:00,15.08843551,0.0001915,53.2151,42.7634,53.4434,190.6592,-0.0011308,-0.00018242,0.0,0 STARLINK-3553,1 51866U 22022Q   22158.91667824 -.00018242  00000-0 -11308-2 0  9999,2 51866  53.2151  42.7634 0001915  53.4434 190.6592 15.08843551  1306,6917.87,95.437,541.059,538.41,0.0
51866.0,STARLINK-3553,PAYLOAD,2022-06-08 14:00:01,15.0883979,0.0001792,53.2154,39.7688,56.4339,210.8635,-6.473899999999999e-05,-1.318e-05,0.0,0 STARLINK-3553,1 51866U 22022Q   22159.58334491 -.00001318  00000-0 -64739-4 0  9998,2 51866  53.2154  39.7688 0001792  56.4339 210.8635 15.08839790 16268,6917.880999999999,95.438,540.986,538.506,0.0
51866.0,STARLINK-3553,PAYLOAD,2022-06-08 22:00:01,15.088305599999998,0.0001919,53.2156,38.274,51.7927,227.164,-0.00059547,-9.75e-05,0.0,0 STARLINK-3553,1 51866U 22022Q   22159.91668981 -.00009750  00000-0 -59547-3 0  9997,2 51866  53.2156  38.2740 0001919  51.7927 227.1640 15.08830560  1307,6917.909000000002,95.438,541.102,538.447,0.0
51866.0,STARLINK-3553,PAYLOAD,2022-06-09 14:00:01,15.0882414,0.0001759,53.2161,35.2796,55.4778,246.5887,0.0001103,1.467e-05,0.0,0 STARLINK-3553,1 51866U 22022Q   22160.58334491  .00001467  00000-0  11030-3 0  9998,2 51866  53.2161  35.2796 0001759  55.4778 246.5887 15.08824140  1303,6917.929,95.439,541.011,538.577,0.0
51866.0,STARLINK-3553,PAYLOAD,2022-06-09 22:00:00,15.08821983,0.0001894,53.2163,33.785,50.4522,263.1935,-0.00050383,-8.294e-05,0.0,0 STARLINK-3553,1 51866U 22022Q   22160.91667824 -.00008294  00000-0 -50383-3 0  9995,2 51866  53.2163  33.7850 0001894  50.4522 263.1935 15.08821983  1302,6917.935,95.439,541.111,538.49,0.0
51866.0,STARLINK-3553,PAYLOAD,2022-06-10 00:00:00,15.08810601,0.0001928,53.2164,33.4113,49.8249,356.7162,0.0012046,0.0001892,0.0,0 STARLINK-3553,1 51866U 22022Q   22161.00001157  .00018920  00000-0  12046-2 0  9995,2 51866  53.2164  33.4113 0001928  49.8249 356.7162 15.08810601 16489,6917.97,95.439,541.169,538.501,0.0
51866.0,STARLINK-3553,PAYLOAD,2022-06-10 14:00:01,15.08816251,0.0001761,53.2166,30.7903,56.4559,280.3463,0.0028011,0.00044545,0.0,0 STARLINK-3553,1 51866U 22022Q   22161.58334491  .00044545  00000-0  28011-2 0  9999,2 51866  53.2166  30.7903 0001761  56.4559 280.3463 15.08816251  1309,6917.953,95.439,541.036,538.6,0.0
51866.0,STARLINK-3553,PAYLOAD,2022-06-10 22:00:00,15.08843947,0.0001918,53.2166,29.2958,51.7209,296.6697,-0.00033599,-5.632e-05,0.0,0 STARLINK-3553,1 51866U 22022Q   22161.91667824 -.00005632  00000-0 -33599-3 0  9999,2 51866  53.2166  29.2958 0001918  51.7209 296.6697 15.08843947  1307,6917.868,95.437,541.06,538.406,0.0
51866.0,STARLINK-3553,PAYLOAD,2022-06-11 06:00:00,15.08876887,0.0001823,53.2163,27.7989,50.1433,309.8386,-0.0042549,-0.0006744,0.0,0 STARLINK-3553,1 51866U 22022Q   22162.25001157 -.00067440  00000-0 -42549-2 0  9997,2 51866  53.2163  27.7989 0001823  50.1433 309.8386 15.08876887 16664,6917.768,95.435,540.894,538.372,0.0
51866.0,STARLINK-3553,PAYLOAD,2022-06-11 22:00:00,15.08838475,0.0001827,53.2165,24.8069,51.244,331.9063,-0.00015576,-2.766e-05,0.0,0 STARLINK-3553,1 51866U 22022Q   22162.91667824 -.00002766  00000-0 -15576-3 0  9990,2 51866  53.2165  24.8069 0001827  51.2440 331.9063 15.08838475 16778,6917.885,95.438,541.014,538.486,0.0
51866.0,STARLINK-3553,PAYLOAD,2022-06-12 14:00:01,15.08850013,0.0001619,53.2162,21.8125,57.5837,348.7572,0.00017361,2.477e-05,0.0,0 STARLINK-3553,1 51866U 22022Q   22163.58334491  .00002477  00000-0  17361-3 0  9996,2 51866  53.2162  21.8125 0001619  57.5837 348.7572 15.08850013  1309,6917.85,95.437,540.835,538.595,0.0
51866.0,STARLINK-3553,PAYLOAD,2022-06-12 22:00:00,15.08832373,0.000172,53.216,20.3179,50.8452,7.1096,-0.0006211,-0.00010157,0.0,0 STARLINK-3553,1 51866U 22022Q   22163.91667824 -.00010157  00000-0 -62110-3 0  9990,2 51866  53.2160  20.3179 0001720  50.8452   7.1096 15.08832373  1308,6917.904,95.438,540.9590000000002,538.5790000000002,0.0
51866.0,STARLINK-3553,PAYLOAD,2022-06-13 06:00:02,15.08853066,0.000164,53.2155,18.8205,50.7412,18.8613,-0.0014657,-0.00023547,0.0,0 STARLINK-3553,1 51866U 22022Q   22164.25002315 -.00023547  00000-0 -14657-2 0  9995,2 51866  53.2155  18.8205 0001640  50.7412  18.8613 15.08853066 16975,6917.84,95.437,540.84,538.571,0.0
51866.0,STARLINK-3553,PAYLOAD,2022-06-13 14:00:01,15.08841158,0.0001558,53.2156,17.3232,57.5332,23.6061,0.0019313,0.00030583,0.0,0 STARLINK-3553,1 51866U 22022Q   22164.58334491  .00030583  00000-0  19313-2 0  9994,2 51866  53.2156  17.3232 0001558  57.5332  23.6061 15.08841158  1305,6917.877,95.437,540.82,538.664,0.0
51866.0,STARLINK-3553,PAYLOAD,2022-06-13 22:00:00,15.08860816,0.0001686999999999,53.2153,15.8286,50.1739,42.5761,-0.0023701,-0.00037832,0.0,0 STARLINK-3553,1 51866U 22022Q   22164.91667824 -.00037832  00000-0 -23701-2 0  9992,2 51866  53.2153  15.8286 0001687  50.1739  42.5761 15.08860816 17077,6917.816999999999,95.436,540.849,538.515,0.0
51866.0,STARLINK-3553,PAYLOAD,2022-06-14 14:00:01,15.08818957,0.0001628,53.2151,12.8337,58.7977,57.1545,0.0013499,0.00021249,0.0,0 STARLINK-3553,1 51866U 22022Q   22165.58334491  .00021249  00000-0  13499-2 0  9993,2 51866  53.2151  12.8337 0001628  58.7977  57.1545 15.08818957 17174,6917.945,95.439,540.936,538.683,0.0
51866.0,STARLINK-3553,PAYLOAD,2022-06-14 22:00:00,15.08819631,0.0001774999999999,53.215,11.3391,51.8975,75.6365,0.0012365,0.00019435,0.0,0 STARLINK-3553,1 51866U 22022Q   22165.91667824  .00019435  00000-0  12365-2 0  9994,2 51866  53.2150  11.3391 0001775  51.8975  75.6365 15.08819631  1305,6917.943,95.439,541.036,538.58,0.0
51866.0,STARLINK-3553,PAYLOAD,2022-06-15 14:00:01,15.08817461,0.0001585999999999,53.2152,8.3441,56.2276,94.4729,0.0010167,0.0001592,0.0,0 STARLINK-3553,1 51866U 22022Q   22166.58334491  .00015920  00000-0  10167-2 0  9992,2 51866  53.2152   8.3441 0001586  56.2276  94.4729 15.08817461 17323,6917.949000000001,95.439,540.911,538.717,0.0
51866.0,STARLINK-3553,PAYLOAD,2022-06-15 22:00:00,15.08816118,0.0001754,53.2152,6.8495,48.6507,113.6338,0.0019695,0.00031175,0.0,0 STARLINK-3553,1 51866U 22022Q   22166.91667824  .00031175  00000-0  19695-2 0  9993,2 51866  53.2152   6.8495 0001754  48.6507 113.6338 15.08816118  1303,6917.953,95.439,541.0319999999998,538.605,0.0
51866.0,STARLINK-3553,PAYLOAD,2022-06-16 02:00:01,15.08834806,0.0001728,53.2149,6.1009,46.2772,301.796,0.0014895,0.00023494,0.0,0 STARLINK-3553,1 51866U 22022Q   22167.08334491  .00023494  00000-0  14895-2 0  9995,2 51866  53.2149   6.1009 0001728  46.2772 301.7960 15.08834806  1307,6917.896,95.438,540.957,538.566,0.0
51866.0,STARLINK-3553,PAYLOAD,2022-06-19 14:00:01,15.08838676,0.0001668,53.2166,350.3871,56.4415,233.3636,-0.00025227,-4.301e-05,0.0,0 STARLINK-3553,1 51866U 22022Q   22170.58334491 -.00004301  00000-0 -25227-3 0  9994,2 51866  53.2166 350.3871 0001668  56.4415 233.3636 15.08838676  1306,6917.884,95.438,540.903,538.596,0.0
51866.0,STARLINK-3553,PAYLOAD,2022-06-19 20:00:01,15.08824423,0.000181,53.2164,349.2663,50.7777,157.7228,0.0011573,0.00018171,0.0,0 STARLINK-3553,1 51866U 22022Q   22170.83334491  .00018171  00000-0  11573-2 0  9998,2 51866  53.2164 349.2663 0001810  50.7777 157.7228 15.08824423 17967,6917.928000000001,95.439,541.045,538.5409999999998,0.0
51866.0,STARLINK-3553,PAYLOAD,2022-06-19 22:00:00,15.08814354,0.0001811,53.2163,348.8923,49.6419,251.7576,0.0029669,0.00047214,0.0,0 STARLINK-3553,1 51866U 22022Q   22170.91667824  .00047214  00000-0  29669-2 0  9991,2 51866  53.2163 348.8923 0001811  49.6419 251.7576 15.08814354  1305,6917.959,95.439,541.077,538.571,0.0
51866.0,STARLINK-3553,PAYLOAD,2022-06-20 12:00:00,15.08821344,0.0001543,53.2162,346.272,56.753,174.9245,0.0011407,0.00017904,0.0,0 STARLINK-3553,1 51866U 22022Q   22171.50001157  .00017904  00000-0  11407-2 0  9992,2 51866  53.2162 346.2720 0001543  56.7530 174.9245 15.08821344 18063,6917.937,95.439,540.87,538.735,0.0
51866.0,STARLINK-3553,PAYLOAD,2022-06-20 14:00:01,15.08837462,0.0001561999999999,53.2162,345.8983,54.7375,269.8299,-0.0007836,-0.00012736,0.0,0 STARLINK-3553,1 51866U 22022Q   22171.58334491 -.00012736  00000-0 -78360-3 0  9992,2 51866  53.2162 345.8983 0001562  54.7375 269.8299 15.08837462  1305,6917.888000000001,95.438,540.8340000000002,538.673,0.0
51866.0,STARLINK-3553,PAYLOAD,2022-06-20 22:00:00,15.08811068,0.0001714,53.2157,344.4034,48.168,287.9925,0.0032052,0.00051052,0.0,0 STARLINK-3553,1 51866U 22022Q   22171.91667824  .00051052  00000-0  32052-2 0  9997,2 51866  53.2157 344.4034 0001714  48.1680 287.9925 15.08811068  1307,6917.969,95.439,541.02,538.648,0.0
51866.0,STARLINK-3553,PAYLOAD,2022-06-21 14:00:01,15.08880303,0.0001547,53.2156,341.4094,53.719,305.6163,-0.0038994,-0.00061882,0.0,0 STARLINK-3553,1 51866U 22022Q   22172.58334491 -.00061882  00000-0 -38994-2 0  9997,2 51866  53.2156 341.4094 0001547  53.7190 305.6163 15.08880303 18220,6917.757,95.435,540.692,538.552,0.0
